{
    "links": {
        "self": "http://www.neowsapp.com/rest/v1/neo/3761732?api_key=iIulBulltgU6a56xZRHN4H3l9WmuAYTsLGpBGhQ2"
    },
    "id": "3761732",
    "neo_reference_id": "3761732",
    "name": "(2016 UP36)",
    "designation": "2016 UP36",
    "nasa_jpl_url": "http://ssd.jpl.nasa.gov/sbdb.cgi?sstr=3761732",
    "absolute_magnitude_h": 26.1,
    "estimated_diameter": {
        "kilometers": {
            "estimated_diameter_min": 0.0160160338,
            "estimated_diameter_max": 0.0358129403
        },
        "meters": {
            "estimated_diameter_min": 16.0160337979,
            "estimated_diameter_max": 35.8129403019
        },
        "miles": {
            "estimated_diameter_min": 0.0099518989,
            "estimated_diameter_max": 0.0222531225
        },
        "feet": {
            "estimated_diameter_min": 52.5460443254,
            "estimated_diameter_max": 117.4965270602
        }
    },
    "is_potentially_hazardous_asteroid": false,
    "close_approach_data": [
        {
            "close_approach_date": "1932-03-07",
            "close_approach_date_full": "1932-Mar-07 14:23",
            "epoch_date_close_approach": -1193477820000,
            "relative_velocity": {
                "kilometers_per_second": "18.1968540953",
                "kilometers_per_hour": "65508.674743103",
                "miles_per_hour": "40704.5429257909"
            },
            "miss_distance": {
                "astronomical": "0.0597919742",
                "lunar": "23.2590779638",
                "kilometers": "8944751.983414954",
                "miles": "5558011.1540922052"
            },
            "orbiting_body": "Earth"
        },
        {
            "close_approach_date": "2016-10-31",
            "close_approach_date_full": "2016-Oct-31 05:37",
            "epoch_date_close_approach": 1477892220000,
            "relative_velocity": {
                "kilometers_per_second": "15.864815487",
                "kilometers_per_hour": "57113.3357532119",
                "miles_per_hour": "35488.0057628777"
            },
            "miss_distance": {
                "astronomical": "0.0129180246",
                "lunar": "5.0251115694",
                "kilometers": "1932508.964767602",
                "miles": "1200805.3886208276"
            },
            "orbiting_body": "Earth"
        }
    ],
    "orbital_data": {
        "orbit_id": "5",
        "orbit_determination_date": "2019-07-17 06:11:30",
        "first_observation_date": "2016-10-26",
        "last_observation_date": "2016-10-29",
        "data_arc_in_days": 3,
        "observations_used": 36,
        "orbit_uncertainty": "8",
        "minimum_orbit_intersection": ".012319",
        "jupiter_tisserand_invariant": "3.058",
        "epoch_osculation": "2457688.5",
        "eccentricity": ".6921556574114122",
        "semi_major_axis": "2.538136728484875",
        "inclination": "2.100758942489007",
        "ascending_node_longitude": "197.8712858208362",
        "orbital_period": "1476.967528612584",
        "perihelion_distance": ".7813510325803755",
        "perihelion_argument": "261.2458696644201",
        "aphelion_distance": "4.294922424389375",
        "perihelion_time": "2457731.832416656676",
        "mean_anomaly": "349.4380413284663",
        "mean_motion": ".2437426639556338",
        "equinox": "J2000",
        "orbit_class": {
            "orbit_class_type": "APO",
            "orbit_class_description": "Near-Earth asteroid orbits which cross the Earth’s orbit similar to that of 1862 Apollo",
            "orbit_class_range": "a (semi-major axis) > 1.0 AU; q (perihelion) < 1.017 AU"
        }
    },
    "is_sentry_object": false
}